STARLINK-1845_new
1 17135C 20088P   21326.11079412  .00001255  00000-0  84076-4 0  3263
2 17135  53.0541 133.2437 0001717  77.1895 313.7091 15.06404320    16
STARLINK-1845_old
1 27135C 20088P   21325.15801556  .00000512  00000-0  34280-4 0  3254
2 27135  53.0541 137.5207 0001742  75.2300 185.8400 15.06402744    16
